STARLINK-1470           
1 45772U 20038AU  26068.60892913  .00054678  00000+0  19687-2 0  9990
2 45772  53.0480 174.6971 0002444  12.8687 347.2373 15.28074860317065
STARLINK-34116          
1 63890U 25095A   26068.34792349  .00038061  00000+0  13849-2 0  9994
2 63890  42.9987 178.3202 0000891 237.4677 122.6089 15.27595514 47737
